0 CZ-4 DEB
1 37622U 90081DJ  13282.49273868  .00001212  00000-0  45276-3 0  2717
2 37622 098.6621 280.6108 0042066 125.7817 025.7340 14.33201285665690
0 CZ-4 DEB
1 37622U 90081DJ  13286.93734735  .00001357  00000-0  50493-3 0  2734
2 37622 098.6616 285.0572 0042054 113.0864 277.4366 14.33209935666333
0 CZ-4 DEB
1 37622U 90081DJ  13290.79517712  .00001414  00000-0  52528-3 0  2743
2 37622 098.6621 288.9150 0042169 101.9417 021.9656 14.33222532666882
0 CZ-4 DEB
1 37622U 90081DJ  13293.22553302  .00001641  00000-0  60685-3 0  2755
2 37622 098.6625 291.3457 0042135 095.0195 321.4155 14.33229316667232
0 CZ-4 DEB
1 37622U 90081DJ  13295.47857689  .00001692  00000-0  62522-3 0  2768
2 37622 098.6627 293.5996 0042135 088.5150 066.1629 14.33237459667555
